ONEWEB-0553             
1 56055U 23043K   24018.14918451  .00000029  00000+0  43139-4 0  9995
2 56055  87.9039  44.1298 0001583  76.5817 283.5491 13.16596490 43955
ONEWEB-0554             
1 56056U 23043L   24017.60453149  .00000071  00000+0  15203-3 0  9991
2 56056  87.9042  44.2559 0001761 120.8716 239.2589 13.16595157 42954
ONEWEB-0555             
1 56057U 23043M   24018.09850351 -.00000027  00000+0 -10512-3 0  9993
2 56057  87.9037  44.1324 0001145  77.3187 282.8072 13.16593263 43938
ONEWEB-0557             
1 56058U 23043N   24017.58077528 -.00000005  00000+0 -46631-4 0  9992
2 56058  87.9039  44.2627 0000666  92.8107 267.3101 13.16593328 43864
ONEWEB-0558             
1 56059U 23043P   24018.10931432  .00000074  00000+0  14781-3 0  9999
2 56059  87.9214  59.3693 0002380  95.8649 264.2756 13.21824312 42754
ONEWEB-0559             
1 56060U 23043Q   24018.17397587 -.00000042  00000+0 -13342-3 0  9994
2 56060  87.9212  59.3561 0002290 111.3496 248.7883 13.21825071 42775
ONEWEB-0566             
1 56061U 23043R   24017.63779683  .00000025  00000+0  28925-4 0  9999
2 56061  87.9213  59.4647 0002616  98.4640 261.6790 13.21825717 41778
ONEWEB-0568             
1 56062U 23043S   24017.90219927  .00000233  00000+0  57484-3 0  9992
2 56062  87.9040  44.1623 0001534  84.9286 275.2020 13.16595461 43016
